{
    "links": {
        "self": "http://www.neowsapp.com/rest/v1/neo/54050991?api_key=iIulBulltgU6a56xZRHN4H3l9WmuAYTsLGpBGhQ2"
    },
    "id": "54050991",
    "neo_reference_id": "54050991",
    "name": "(2020 PE1)",
    "designation": "2020 PE1",
    "nasa_jpl_url": "http://ssd.jpl.nasa.gov/sbdb.cgi?sstr=54050991",
    "absolute_magnitude_h": 23.104,
    "estimated_diameter": {
        "kilometers": {
            "estimated_diameter_min": 0.063643635,
            "estimated_diameter_max": 0.1423114943
        },
        "meters": {
            "estimated_diameter_min": 63.6436350347,
            "estimated_diameter_max": 142.3114942728
        },
        "miles": {
            "estimated_diameter_min": 0.0395463091,
            "estimated_diameter_max": 0.0884282355
        },
        "feet": {
            "estimated_diameter_min": 208.8045835673,
            "estimated_diameter_max": 466.90124287
        }
    },
    "is_potentially_hazardous_asteroid": false,
    "close_approach_data": [
        {
            "close_approach_date": "2020-09-03",
            "close_approach_date_full": "2020-Sep-03 18:39",
            "epoch_date_close_approach": 1599158340000,
            "relative_velocity": {
                "kilometers_per_second": "12.0682904669",
                "kilometers_per_hour": "43445.8456807752",
                "miles_per_hour": "26995.5589453683"
            },
            "miss_distance": {
                "astronomical": "0.1348598056",
                "lunar": "52.4604643784",
                "kilometers": "20174739.666374072",
                "miles": "12536001.9265513136"
            },
            "orbiting_body": "Earth"
        }
    ],
    "orbital_data": {
        "orbit_id": "3",
        "orbit_determination_date": "2020-08-18 06:06:32",
        "first_observation_date": "2020-08-10",
        "last_observation_date": "2020-08-18",
        "data_arc_in_days": 8,
        "observations_used": 31,
        "orbit_uncertainty": "9",
        "minimum_orbit_intersection": ".129772",
        "jupiter_tisserand_invariant": "3.168",
        "epoch_osculation": "2459072.5",
        "eccentricity": ".6060997014874487",
        "semi_major_axis": "2.469881655771349",
        "inclination": "14.36293402607447",
        "ascending_node_longitude": "135.5712197142398",
        "orbital_period": "1417.79239904287",
        "perihelion_distance": ".9728871214990089",
        "perihelion_argument": "247.3614097076354",
        "aphelion_distance": "3.96687619004369",
        "perihelion_time": "2459131.573886343451",
        "mean_anomaly": "345.0002023582584",
        "mean_motion": ".2539158767130015",
        "equinox": "J2000",
        "orbit_class": {
            "orbit_class_type": "APO",
            "orbit_class_description": "Near-Earth asteroid orbits which cross the Earth’s orbit similar to that of 1862 Apollo",
            "orbit_class_range": "a (semi-major axis) > 1.0 AU; q (perihelion) < 1.017 AU"
        }
    },
    "is_sentry_object": false
}